[
  {
    "OBJECT_NAME": "STARLINK-3183",
    "OBJECT_ID": "22005AG",
    "EPOCH": "2025-11-11T06:02:06.859392",
    "MEAN_MOTION": 16.01681255,
    "ECCENTRICITY": 7.72e-05,
    "INCLINATION": 53.2128,
    "RA_OF_ASC_NODE": 87.8891,
    "ARG_OF_PERICENTER": 296.4647,
    "MEAN_ANOMALY": 63.6306,
    "EPHEMERIS_TYPE": 0,
    "CLASSIFICATION_TYPE": "U",
    "NORAD_CAT_ID": 51134,
    "ELEMENT_SET_NO": 999,
    "REV_AT_EPOCH": 21118,
    "BSTAR": 0.002547,
    "MEAN_MOTION_DOT": 0.01446547,
    "MEAN_MOTION_DDOT": 0.0012062000000000002,
    "TLE_LINE1": "1 51134U 22005AG  25315.25146828  .01446547  12062-2  25470-2 0  9999",
    "TLE_LINE2": "2 51134  53.2128  87.8891 0000772 296.4647  63.6306 16.01681255211184",
    "COMMENT": "Grouped by shell and plane from TLE"
  },
  {
    "OBJECT_NAME": "STARLINK-5687",
    "OBJECT_ID": "23015AA",
    "EPOCH": "2025-11-11T08:00:03.000384",
    "MEAN_MOTION": 15.95190807,
    "ECCENTRICITY": 0.0029064,
    "INCLINATION": 42.9751,
    "RA_OF_ASC_NODE": 82.3627,
    "ARG_OF_PERICENTER": 301.2961,
    "MEAN_ANOMALY": 173.7574,
    "EPHEMERIS_TYPE": 0,
    "CLASSIFICATION_TYPE": "U",
    "NORAD_CAT_ID": 55473,
    "ELEMENT_SET_NO": 999,
    "REV_AT_EPOCH": 571,
    "BSTAR": 0.0010833,
    "MEAN_MOTION_DOT": 0.00459047,
    "MEAN_MOTION_DDOT": 9.226e-05,
    "TLE_LINE1": "1 55473U 23015AA  25315.33336806  .00459047  92260-4  10833-2 0  9992",
    "TLE_LINE2": "2 55473  42.9751  82.3627 0029064 301.2961 173.7574 15.95190807  5717",
    "COMMENT": "Grouped by shell and plane from TLE"
  }
]